ONEWEB-0102             
1 47258U 20100A   24184.86876798 -.00000067  00000+0 -22065-3 0  9999
2 47258  87.8954 132.9253 0001926  78.0744 282.0600 13.12441287171035
ONEWEB-0109             
1 47259U 20100B   24184.57193527 -.00000324  00000+0 -93474-3 0  9998
2 47259  87.8951 132.9486 0001954  77.9122 282.2226 13.12443741170829
ONEWEB-0110             
1 47260U 20100C   24184.59788931 -.00000008  00000+0 -56725-4 0  9999
2 47260  87.8945 132.9484 0002087  76.9060 283.2301 13.12445476170990
ONEWEB-0111             
1 47261U 20100D   24184.55247495  .00000289  00000+0  76782-3 0  9994
2 47261  87.8951 132.9543 0002001  78.6716 281.4638 13.12443252170822
ONEWEB-0114             
1 47262U 20100E   24184.35455198 -.00000329  00000+0 -95089-3 0  9992
2 47262  87.8948 133.0083 0001657  76.1641 283.9672 13.12441674170759
ONEWEB-0117             
1 47263U 20100F   24184.57518059 -.00000350  00000+0 -10089-2 0  9993
2 47263  87.8951 132.9405 0002088  80.4590 279.6774 13.12442468170791
ONEWEB-0118             
1 47264U 20100G   24184.83632685  .00000238  00000+0  62706-3 0  9992
2 47264  87.8951 132.8924 0001708  90.1560 269.9765 13.12442453171023
ONEWEB-0119             
1 47265U 20100H   24184.86389936  .00000131  00000+0  32833-3 0  9994
2 47265  87.8952 132.9256 0002084  79.3931 280.7432 13.12442790171007
